NORAD_CAT_ID,OBJECT_NAME,OBJECT_TYPE,EPOCH,MEAN_MOTION,ECCENTRICITY,INCLINATION,RA_OF_ASC_NODE,ARG_OF_PERICENTER,MEAN_ANOMALY,BSTAR,MEAN_MOTION_DOT,MEAN_MOTION_DDOT,TLE_LINE0,TLE_LINE1,TLE_LINE2,SEMIMAJOR_AXIS,PERIOD,APOGEE,PERIGEE,DECAYED
52100.0,STARLINK-3702,PAYLOAD,2023-05-30 11:03:08,15.08834083,9.23e-05,53.2174,322.1721,91.2978,268.8119,0.00016384,2.32e-05,0.0,0 STARLINK-3702,1 52100U 22029N   23150.46051379  .00002320  00000-0  16384-3 0  9991,2 52100  53.2174 322.1721 0000923  91.2978 268.8119 15.08834083 67547,6917.898,95.438,540.402,539.125,0.0
52100.0,STARLINK-3702,PAYLOAD,2023-05-30 19:00:03,15.08843126,8.81e-05,53.2175,320.6852,88.3139,271.7954,6.0612e-05,6.77e-06,0.0,0 STARLINK-3702,1 52100U 22029N   23150.79171027  .00000677  00000-0  60612-4 0  9997,2 52100  53.2175 320.6852 0000881  88.3139 271.7954 15.08843126 67598,6917.871,95.437,540.345,539.126,0.0
52100.0,STARLINK-3702,PAYLOAD,2023-05-31 04:32:22,15.08842384,9.68e-05,53.2186,318.9012,85.7085,274.4018,8.3178e-05,1.036e-05,0.0,0 STARLINK-3702,1 52100U 22029N   23151.18915054  .00001036  00000-0  83178-4 0  9999,2 52100  53.2186 318.9012 0000968  85.7085 274.4018 15.08842384 67658,6917.873,95.437,540.408,539.068,0.0
52100.0,STARLINK-3702,PAYLOAD,2023-05-31 17:15:27,15.08843409,7.83e-05,53.2174,316.5223,89.2954,270.8127,0.00014234,1.979e-05,0.0,0 STARLINK-3702,1 52100U 22029N   23151.71906810  .00001979  00000-0  14234-3 0  9990,2 52100  53.2174 316.5223 0000783  89.2954 270.8127 15.08843409 67731,6917.87,95.437,540.277,539.193,0.0
52100.0,STARLINK-3702,PAYLOAD,2023-06-01 04:23:09,15.08842348,5.66e-05,53.2175,314.4403,108.0713,252.0341,5.794e-05,6.35e-06,0.0,0 STARLINK-3702,1 52100U 22029N   23152.18274929  .00000635  00000-0  57940-4 0  9991,2 52100  53.2175 314.4403 0000566 108.0713 252.0341 15.08842348 67800,6917.873,95.437,540.13,539.347,0.0
52100.0,STARLINK-3702,PAYLOAD,2023-06-02 10:35:29,15.0883673,8.31e-05,53.2185,308.7892,87.9217,272.1871,2.5525e-05,1.19e-06,0.0,0 STARLINK-3702,1 52100U 22029N   23153.44131528  .00000119  00000-0  25525-4 0  9999,2 52100  53.2185 308.7892 0000831  87.9217 272.1871 15.08836730 67997,6917.89,95.438,540.33,539.181,0.0
52100.0,STARLINK-3702,PAYLOAD,2023-06-02 13:46:15,15.08838915,8.64e-05,53.2181,308.1951,83.8872,276.2218,4.4154e-05,4.15e-06,0.0,0 STARLINK-3702,1 52100U 22029N   23153.57379416  .00000415  00000-0  44154-4 0  9991,2 52100  53.2181 308.1951 0000864  83.8872 276.2218 15.08838915 68012,6917.884,95.438,540.346,539.151,0.0
52100.0,STARLINK-3702,PAYLOAD,2023-06-02 16:57:02,15.08841812,8.72e-05,53.2176,307.6006,81.3244,278.7847,-2.3079e-06,-3.24e-06,0.0,0 STARLINK-3702,1 52100U 22029N   23153.70627381 -.00000324  00000-0 -23079-5 0  9998,2 52100  53.2176 307.6006 0000872  81.3244 278.7847 15.08841812 68033,6917.875,95.437,540.343,539.137,0.0
52100.0,STARLINK-3702,PAYLOAD,2023-06-03 10:26:17,15.088206,9.4e-05,53.2172,304.3309,69.2025,290.9067,0.00026171,3.878e-05,0.0,0 STARLINK-3702,1 52100U 22029N   23154.43492256  .00003878  00000-0  26171-3 0  9999,2 52100  53.2172 304.3309 0000940  69.2025 290.9067 15.08820600 68141,6917.94,95.439,540.455,539.154,0.0
52100.0,STARLINK-3702,PAYLOAD,2023-06-03 13:37:02,15.08852554,0.0001037,53.2173,303.7356,63.3677,296.7422,-0.00020676,-3.578e-05,0.0,0 STARLINK-3702,1 52100U 22029N   23154.56739313 -.00003578  00000-0 -20676-3 0  9994,2 52100  53.2173 303.7356 0001037  63.3677 296.7422 15.08852554 68167,6917.842,95.437,540.424,538.99,0.0
52100.0,STARLINK-3702,PAYLOAD,2023-06-03 16:47:49,15.08831148,8.81e-05,53.2175,303.1405,75.2387,284.8703,0.00015282,2.145e-05,0.0,0 STARLINK-3702,1 52100U 22029N   23154.69987960  .00002145  00000-0  15282-3 0  9995,2 52100  53.2175 303.1405 0000881  75.2387 284.8703 15.08831148 68182,6917.907,95.438,540.382,539.163,0.0
52100.0,STARLINK-3702,PAYLOAD,2023-06-04 13:27:50,15.08839337,8.44e-05,53.2173,299.2755,73.3283,286.7801,0.00010253,1.344e-05,0.0,0 STARLINK-3702,1 52100U 22029N   23155.56099652  .00001344  00000-0  10253-3 0  9997,2 52100  53.2173 299.2755 0000844  73.3283 286.7801 15.08839337 68319,6917.882,95.438,540.331,539.164,0.0
52100.0,STARLINK-3702,PAYLOAD,2023-06-04 15:03:13,15.08841901,8.41e-05,53.2173,298.9782,72.9638,287.1446,0.00012342,1.677e-05,0.0,0 STARLINK-3702,1 52100U 22029N   23155.62723443  .00001677  00000-0  12342-3 0  9996,2 52100  53.2173 298.9782 0000841  72.9638 287.1446 15.08841901 68322,6917.875,95.437,540.321,539.158,0.0
52100.0,STARLINK-3702,PAYLOAD,2023-06-05 05:21:41,15.08837048,8.62e-05,53.2174,296.3032,77.0906,283.0183,6.6462e-05,7.7e-06,0.0,0 STARLINK-3702,1 52100U 22029N   23156.22339932  .00000770  00000-0  66462-4 0  9995,2 52100  53.2174 296.3032 0000862  77.0906 283.0183 15.08837048 68410,6917.889,95.438,540.351,539.158,0.0
52100.0,STARLINK-3702,PAYLOAD,2023-06-05 13:18:37,15.08839823,8.14e-05,53.2173,294.8161,75.7181,284.3901,5.3702e-05,5.67e-06,0.0,0 STARLINK-3702,1 52100U 22029N   23156.55459847  .00000567  00000-0  53702-4 0  9996,2 52100  53.2173 294.8161 0000814  75.7181 284.3901 15.08839823 68462,6917.881,95.438,540.309,539.183,0.0
52100.0,STARLINK-3702,PAYLOAD,2023-06-05 14:54:00,15.08835952,8.32e-05,53.2173,294.5188,76.7637,283.3448,0.00013184,1.811e-05,0.0,0 STARLINK-3702,1 52100U 22029N   23156.62083863  .00001811  00000-0  13184-3 0  9997,2 52100  53.2173 294.5188 0000832  76.7637 283.3448 15.08835952 68470,6917.893,95.438,540.333,539.182,0.0
52100.0,STARLINK-3702,PAYLOAD,2023-06-06 11:34:01,15.08835724,8.43e-05,53.2173,290.6525,81.4173,278.6915,1.7752e-05,-5e-08,0.0,0 STARLINK-3702,1 52100U 22029N   23157.48196187 -.00000005  00000-0  17752-4 0  9997,2 52100  53.2173 290.6525 0000843  81.4173 278.6915 15.08835724 68600,6917.893,95.438,540.342,539.175,0.0
52100.0,STARLINK-3702,PAYLOAD,2023-06-06 17:55:32,15.08876135,0.0001155,53.2172,289.4632,105.473,254.6389,-0.00032889,-5.524e-05,0.0,0 STARLINK-3702,1 52100U 22029N   23157.74690451 -.00005524  00000-0 -32889-3 0  9998,2 52100  53.2172 289.4632 0001155 105.4730 254.6389 15.08876135 68641,6917.77,95.435,540.434,538.836,0.0
52100.0,STARLINK-3702,PAYLOAD,2023-06-07 03:27:52,15.08833947,9.05e-05,53.2172,287.6783,87.0376,273.072,2.6617e-05,1.36e-06,0.0,0 STARLINK-3702,1 52100U 22029N   23158.14436156  .00000136  00000-0  26617-4 0  9998,2 52100  53.2172 287.6783 0000905  87.0376 273.0720 15.08833947 68706,6917.899,95.438,540.39,539.138,0.0
52100.0,STARLINK-3702,PAYLOAD,2023-06-07 11:24:48,15.08832961,9.08e-05,53.2171,286.1919,86.4143,273.6953,8.4612e-06,-1.53e-06,0.0,0 STARLINK-3702,1 52100U 22029N   23158.47556399 -.00000153  00000-0  84612-5 0  9996,2 52100  53.2171 286.1919 0000908  86.4143 273.6953 15.08832961 68752,6917.902,95.438,540.395,539.139,0.0
52100.0,STARLINK-3702,PAYLOAD,2023-06-07 19:21:43,15.08845721,7.63e-05,53.2173,284.7052,83.8647,276.2433,6.0214e-05,6.71e-06,0.0,0 STARLINK-3702,1 52100U 22029N   23158.80675395  .00000671  00000-0  60214-4 0  9996,2 52100  53.2173 284.7052 0000763  83.8647 276.2433 15.08845721 68801,6917.863,95.437,540.256,539.2,0.0
52100.0,STARLINK-3702,PAYLOAD,2023-06-08 01:43:16,15.08841142,4.58e-05,53.2189,283.5175,52.0546,308.0487,5.1035e-05,5.25e-06,0.0,0 STARLINK-3702,1 52100U 22029N   23159.07171645  .00000525  00000-0  51035-4 0  9994,2 52100  53.2189 283.5175 0000458  52.0546 308.0487 15.08841142 68848,6917.877,95.437,540.059,539.425,0.0
52100.0,STARLINK-3702,PAYLOAD,2023-06-08 14:26:21,15.08838488,7.58e-05,53.2173,281.1368,76.2588,283.8489,8.7173e-05,1.1e-05,0.0,0 STARLINK-3702,1 52100U 22029N   23159.60163925  .00001100  00000-0  87173-4 0  9997,2 52100  53.2173 281.1368 0000758  76.2588 283.8489 15.08838488 68926,6917.885,95.438,540.274,539.226,0.0
52100.0,STARLINK-3702,PAYLOAD,2023-06-09 14:17:08,15.08835173,0.0001393,53.2159,276.6764,79.4923,280.6226,7.8053e-05,9.54e-06,0.0,0 STARLINK-3702,1 52100U 22029N   23160.59524289  .00000954  00000-0  78053-4 0  9994,2 52100  53.2159 276.6764 0001393  79.4923 280.6226 15.08835173 69072,6917.895,95.438,540.724,538.796,0.0
52100.0,STARLINK-3702,PAYLOAD,2023-06-10 14:07:55,15.08843643,9.4e-05,53.2168,272.2148,84.0453,276.0646,8.737e-05,1.103e-05,0.0,0 STARLINK-3702,1 52100U 22029N   23161.58883740  .00001103  00000-0  87370-4 0  9993,2 52100  53.2168 272.2148 0000940  84.0453 276.0646 15.08843643 69220,6917.869,95.437,540.385,539.084,0.0
52100.0,STARLINK-3702,PAYLOAD,2023-06-10 15:43:18,15.08847757,8.77e-05,53.2173,271.917,82.3138,277.7954,4.7827e-05,4.74e-06,0.0,0 STARLINK-3702,1 52100U 22029N   23161.65507584  .00000474  00000-0  47827-4 0  9993,2 52100  53.2173 271.9170 0000877  82.3138 277.7954 15.08847757 69238,6917.857,95.437,540.328,539.115,0.0
52100.0,STARLINK-3702,PAYLOAD,2023-06-11 07:37:10,15.08835744,9.73e-05,53.2179,268.944,87.749,272.3613,3.1615e-05,2.15e-06,0.0,0 STARLINK-3702,1 52100U 22029N   23162.31748480  .00000215  00000-0  31615-4 0  9990,2 52100  53.2179 268.9440 0000973  87.7490 272.3613 15.08835744 69334,6917.893,95.438,540.432,539.085,0.0
52100.0,STARLINK-3702,PAYLOAD,2023-06-11 13:58:42,15.08844532,9.28e-05,53.2174,267.7539,82.905,277.2048,7.4991e-05,9.06e-06,0.0,0 STARLINK-3702,1 52100U 22029N   23162.58243805  .00000906  00000-0  74991-4 0  9991,2 52100  53.2174 267.7539 0000928  82.9050 277.2048 15.08844532 69379,6917.867,95.437,540.374,539.09,0.0
52100.0,STARLINK-3702,PAYLOAD,2023-06-11 15:34:05,15.08843601,9.26e-05,53.2179,267.4565,83.1203,276.9895,9.3291e-05,1.197e-05,0.0,0 STARLINK-3702,1 52100U 22029N   23162.64867838  .00001197  00000-0  93291-4 0  9993,2 52100  53.2179 267.4565 0000926  83.1203 276.9895 15.08843601 69384,6917.869,95.437,540.375,539.094,0.0
52100.0,STARLINK-3702,PAYLOAD,2023-06-12 05:52:34,15.08838341,8.81e-05,53.2173,264.7826,91.4457,268.6637,3.22e-05,2.25e-06,0.0,0 STARLINK-3702,1 52100U 22029N   23163.24484400  .00000225  00000-0  32200-4 0  9994,2 52100  53.2173 264.7826 0000881  91.4457 268.6637 15.08838341 69478,6917.885,95.438,540.36,539.141,0.0
